OBJECT_NAME,OBJECT_ID,EPOCH,MEAN_MOTION,ECCENTRICITY,INCLINATION,RA_OF_ASC_NODE,ARG_OF_PERICENTER,MEAN_ANOMALY,EPHEMERIS_TYPE,CLASSIFICATION_TYPE,NORAD_CAT_ID,ELEMENT_SET_NO,REV_AT_EPOCH,BSTAR,MEAN_MOTION_DOT,MEAN_MOTION_DDOT
IRIDIUM 156,2018-061H,2026-06-17T02:49:06.513600,14.34217038,.0002053,86.3962,56.7587,82.3144,277.8285,0,U,43576,999,41336,.70607E-4,.218E-5,0
IRIDIUM 164,2018-061J,2026-06-17T02:21:42.410592,14.34216895,.0002161,86.3960,56.8068,88.8772,271.2672,0,U,43577,999,41340,.48058E-4,.154E-5,0
IRIDIUM 159,2018-061K,2026-06-17T03:16:30.531072,14.34217581,.0002281,86.3960,56.7278,83.8702,276.2754,0,U,43578,999,41337,.11674E-4,.52E-6,0
IRIDIUM 180,2019-002A,2026-06-17T11:38:06.879840,14.34217236,.0002247,86.3970,353.4730,89.1379,271.0074,0,U,43922,999,38903,.56289E-4,.177E-5,0
IRIDIUM 176,2019-002B,2026-06-17T11:58:13.689984,14.72267339,.0002292,86.6090,353.4107,92.8388,267.3092,0,U,43923,999,39929,.91299E-4,.601E-5,0
IRIDIUM 168,2019-002C,2026-06-17T11:28:58.726272,14.34218704,.0002186,86.3973,353.5531,89.3519,270.7927,0,U,43924,999,38901,.19939E-4,.76E-6,0
IRIDIUM 173,2019-002D,2026-06-17T11:10:42.903840,14.34216776,.0002179,86.3969,353.4473,87.1657,272.9788,0,U,43925,999,38899,.41218E-4,.135E-5,0
IRIDIUM 169,2019-002E,2026-06-17T12:43:52.338432,14.38609130,.0001837,86.4224,25.0498,73.0270,287.1130,0,U,43926,999,39027,.6548E-4,.22E-5,0
IRIDIUM 172,2019-002F,2026-06-17T12:42:02.753856,14.34218634,.0002253,86.3969,353.4287,88.7620,271.3834,0,U,43927,999,38901,.44351E-4,.144E-5,0
IRIDIUM 175,2019-002G,2026-06-17T09:56:50.512128,14.43612781,.0002525,86.4513,290.4259,178.2407,181.8804,0,U,43928,999,39901,.71483E-4,.262E-5,0
IRIDIUM 171,2019-002H,2026-06-17T12:14:38.893632,14.34217402,.0001931,86.3975,353.7428,90.8752,269.2665,0,U,43929,999,38900,-.27142E-4,-.56E-6,0
IRIDIUM 170,2019-002J,2026-06-17T12:07:07.671360,14.72267873,.0002361,86.6091,353.4105,89.3107,270.8380,0,U,43930,999,39930,.91933E-4,.605E-5,0
IRIDIUM 167,2019-002K,2026-06-17T12:05:30.856704,14.34217604,.0001769,86.3967,353.4616,92.0454,268.0944,0,U,43931,999,38900,-.20269E-5,.14E-6,0
IRIDIUM 181,2023-068S,2026-06-17T02:33:17.496000,14.43312412,.0002358,86.4498,56.8243,88.5401,271.6070,0,U,56726,999,16242,.76414E-4,.277E-5,0
IRIDIUM 177,2023-068T,2026-06-17T12:36:33.238080,14.80224847,.0002346,86.1964,328.6307,88.5551,271.5938,0,U,56727,999,16641,.62271E-4,.5E-5,0
IRIDIUM 174,2023-068U,2026-06-17T11:49:21.855648,14.72264223,.0002459,86.6098,353.5631,84.1387,276.0110,0,U,56728,999,16606,.9477E-4,.622E-5,0
IRIDIUM 178,2023-068V,2026-06-17T02:36:49.423104,14.80233634,.0002632,86.6537,25.3929,85.8423,274.3099,0,U,56729,999,16635,.10022E-3,.788E-5,0
IRIDIUM 179,2023-068W,2026-06-17T02:29:02.923584,14.80231047,.0002465,86.6777,34.3753,88.7134,271.4370,0,U,56730,999,16635,.89586E-4,.707E-5,0
